{
  "type": "FeatureCollection",
  "features": [
    {
      "type": "Feature",
      "properties": {
        "norad_id": 34340,
        "name": "COSMOS 2251 DEB",
        "group": "cosmos-2251-debris",
        "lat": 52.534467111514125,
        "lon": -36.557496028300825,
        "alt_km": 753.7540205495752,
        "timestamp": "2025-12-16T13:52:37.916218+00:00",
        "meta_object_name": "COSMOS 2251 DEB",
        "meta_object_id": "1993-036PN",
        "meta_epoch": "2025-12-15T22:13:03.401184",
        "meta_mean_motion": 13.79584579,
        "meta_eccentricity": 0.0283046,
        "meta_inclination": 74.079,
        "meta_ra_of_asc_node": 302.6656,
        "meta_arg_of_pericenter": 49.6879,
        "meta_mean_anomaly": 6.2812,
        "meta_ephemeris_type": 0,
        "meta_classification_type": "U",
        "meta_norad_cat_id": 34340,
        "meta_element_set_no": 999,
        "meta_rev_at_epoch": 84312,
        "meta_bstar": 0.0013086824,
        "meta_mean_motion_dot": 1.802e-05,
        "meta_mean_motion_ddot": 0,
        "tle_line1": "1 34340U 93036PN  25349.92573381  .00001802  00000+0  13087-2 0  9997",
        "tle_line2": "2 34340  74.0790 302.6656 0283046  49.6879   6.2812 13.79584579843122"
      },
      "geometry": {
        "type": "Point",
        "coordinates": [
          -36.557496028300825,
          52.534467111514125
        ]
      }
    },
    {
      "type": "Feature",
      "properties": {
        "norad_id": 34343,
        "name": "COSMOS 2251 DEB",
        "group": "cosmos-2251-debris",
        "lat": -65.20428311097753,
        "lon": 43.774197281147934,
        "alt_km": 662.8278422976746,
        "timestamp": "2025-12-16T13:52:37.916228+00:00",
        "meta_object_name": "COSMOS 2251 DEB",
        "meta_object_id": "1993-036PR",
        "meta_epoch": "2025-12-15T10:47:21.591744",
        "meta_mean_motion": 14.69490573,
        "meta_eccentricity": 0.00236209,
        "meta_inclination": 74.0201,
        "meta_ra_of_asc_node": 84.299,
        "meta_arg_of_pericenter": 358.094,
        "meta_mean_anomaly": 83.0447,
        "meta_ephemeris_type": 0,
        "meta_classification_type": "U",
        "meta_norad_cat_id": 34343,
        "meta_element_set_no": 999,
        "meta_rev_at_epoch": 88770,
        "meta_bstar": 0.00091269795,
        "meta_mean_motion_dot": 5.406e-05,
        "meta_mean_motion_ddot": 0,
        "tle_line1": "1 34343U 93036PR  25349.44955546  .00005406  00000+0  91270-3 0  9999",
        "tle_line2": "2 34343  74.0201  84.2990 0023620 358.0940  83.0447 14.69490573887701"
      },
      "geometry": {
        "type": "Point",
        "coordinates": [
          43.774197281147934,
          -65.20428311097753
        ]
      }
    },
    {
      "type": "Feature",
      "properties": {
        "norad_id": 34344,
        "name": "COSMOS 2251 DEB",
        "group": "cosmos-2251-debris",
        "lat": 19.026765965224325,
        "lon": 109.18226134276306,
        "alt_km": 841.5674043344234,
        "timestamp": "2025-12-16T13:52:37.916238+00:00",
        "meta_object_name": "COSMOS 2251 DEB",
        "meta_object_id": "1993-036PS",
        "meta_epoch": "2025-12-15T07:24:28.775232",
        "meta_mean_motion": 14.16429853,
        "meta_eccentricity": 0.01560156,
        "meta_inclination": 73.9772,
        "meta_ra_of_asc_node": 105.7607,
        "meta_arg_of_pericenter": 289.3843,
        "meta_mean_anomaly": 97.6651,
        "meta_ephemeris_type": 0,
        "meta_classification_type": "U",
        "meta_norad_cat_id": 34344,
        "meta_element_set_no": 999,
        "meta_rev_at_epoch": 86133,
        "meta_bstar": 0.0014546017,
        "meta_mean_motion_dot": 3.231e-05,
        "meta_mean_motion_ddot": 0,
        "tle_line1": "1 34344U 93036PS  25349.30866638  .00003231  00000+0  14546-2 0  9992",
        "tle_line2": "2 34344  73.9772 105.7607 0156015 289.3843  97.6651 14.16429853861334"
      },
      "geometry": {
        "type": "Point",
        "coordinates": [
          109.18226134276306,
          19.026765965224325
        ]
      }
    },
    {
      "type": "Feature",
      "properties": {
        "norad_id": 34346,
        "name": "COSMOS 2251 DEB",
        "group": "cosmos-2251-debris",
        "lat": -71.77373826154403,
        "lon": -173.76364945552578,
        "alt_km": 1011.0233117813887,
        "timestamp": "2025-12-16T13:52:37.916248+00:00",
        "meta_object_name": "COSMOS 2251 DEB",
        "meta_object_id": "1993-036PU",
        "meta_epoch": "2025-12-15T21:21:40.007232",
        "meta_mean_motion": 13.99702523,
        "meta_eccentricity": 0.02061723,
        "meta_inclination": 73.9947,
        "meta_ra_of_asc_node": 306.7797,
        "meta_arg_of_pericenter": 124.9415,
        "meta_mean_anomaly": 268.3106,
        "meta_ephemeris_type": 0,
        "meta_classification_type": "U",
        "meta_norad_cat_id": 34346,
        "meta_element_set_no": 999,
        "meta_rev_at_epoch": 85454,
        "meta_bstar": 0.00067626016,
        "meta_mean_motion_dot": 1.166e-05,
        "meta_mean_motion_ddot": 0,
        "tle_line1": "1 34346U 93036PU  25349.89004638  .00001166  00000+0  67626-3 0  9995",
        "tle_line2": "2 34346  73.9947 306.7797 0206172 124.9415 268.3106 13.99702523854547"
      },
      "geometry": {
        "type": "Point",
        "coordinates": [
          -173.76364945552578,
          -71.77373826154403
        ]
      }
    },
    {
      "type": "Feature",
      "properties": {
        "norad_id": 34383,
        "name": "COSMOS 2251 DEB",
        "group": "cosmos-2251-debris",
        "lat": 10.660984584161701,
        "lon": 106.6911302461062,
        "alt_km": 540.4957281142133,
        "timestamp": "2025-12-16T13:52:37.916258+00:00",
        "meta_object_name": "COSMOS 2251 DEB",
        "meta_object_id": "1993-036PY",
        "meta_epoch": "2025-12-15T21:28:14.333376",
        "meta_mean_motion": 15.09285651,
        "meta_eccentricity": 0.00027174,
        "meta_inclination": 74.0217,
        "meta_ra_of_asc_node": 291.1932,
        "meta_arg_of_pericenter": 46.6945,
        "meta_mean_anomaly": 9.2822,
        "meta_ephemeris_type": 0,
        "meta_classification_type": "U",
        "meta_norad_cat_id": 34383,
        "meta_element_set_no": 999,
        "meta_rev_at_epoch": 89161,
        "meta_bstar": 0.0020992281,
        "meta_mean_motion_dot": 0.00033577,
        "meta_mean_motion_ddot": 0,
        "tle_line1": "1 34383U 93036PY  25349.89461034  .00033577  00000+0  20992-2 0  9998",
        "tle_line2": "2 34383  74.0217 291.1932 0002717  46.6945   9.2822 15.09285651891612"
      },
      "geometry": {
        "type": "Point",
        "coordinates": [
          106.6911302461062,
          10.660984584161701
        ]
      }
    },
    {
      "type": "Feature",
      "properties": {
        "norad_id": 34387,
        "name": "COSMOS 2251 DEB",
        "group": "cosmos-2251-debris",
        "lat": -69.7921857353293,
        "lon": 153.72665592693826,
        "alt_km": 726.5623801956945,
        "timestamp": "2025-12-16T13:52:37.916335+00:00",
        "meta_object_name": "COSMOS 2251 DEB",
        "meta_object_id": "1993-036QC",
        "meta_epoch": "2025-12-15T21:39:58.439808",
        "meta_mean_motion": 14.43827389,
        "meta_eccentricity": 0.00387999,
        "meta_inclination": 74.039,
        "meta_ra_of_asc_node": 206.0166,
        "meta_arg_of_pericenter": 302.4071,
        "meta_mean_anomaly": 70.8519,
        "meta_ephemeris_type": 0,
        "meta_classification_type": "U",
        "meta_norad_cat_id": 34387,
        "meta_element_set_no": 999,
        "meta_rev_at_epoch": 88227,
        "meta_bstar": 0.00028220553,
        "meta_mean_motion_dot": 9.43e-06,
        "meta_mean_motion_ddot": 0,
        "tle_line1": "1 34387U 93036QC  25349.90275972  .00000943  00000+0  28221-3 0  9993",
        "tle_line2": "2 34387  74.0390 206.0166 0038799 302.4071  70.8519 14.43827389882270"
      },
      "geometry": {
        "type": "Point",
        "coordinates": [
          153.72665592693826,
          -69.7921857353293
        ]
      }
    },
    {
      "type": "Feature",
      "properties": {
        "norad_id": 34388,
        "name": "COSMOS 2251 DEB",
        "group": "cosmos-2251-debris",
        "lat": -17.34076782484881,
        "lon": -149.2208755898315,
        "alt_km": 730.2238563879755,
        "timestamp": "2025-12-16T13:52:37.916347+00:00",
        "meta_object_name": "COSMOS 2251 DEB",
        "meta_object_id": "1993-036QD",
        "meta_epoch": "2025-12-15T18:24:47.768256",
        "meta_mean_motion": 14.49381857,
        "meta_eccentricity": 0.00139615,
        "meta_inclination": 74.039,
        "meta_ra_of_asc_node": 217.4266,
        "meta_arg_of_pericenter": 265.4318,
        "meta_mean_anomaly": 166.5841,
        "meta_ephemeris_type": 0,
        "meta_classification_type": "U",
        "meta_norad_cat_id": 34388,
        "meta_element_set_no": 999,
        "meta_rev_at_epoch": 88199,
        "meta_bstar": 0.00044156688,
        "meta_mean_motion_dot": 1.663e-05,
        "meta_mean_motion_ddot": 0,
        "tle_line1": "1 34388U 93036QD  25349.76721954  .00001663  00000+0  44157-3 0  9990",
        "tle_line2": "2 34388  74.0390 217.4266 0013961 265.4318 166.5841 14.49381857881994"
      },
      "geometry": {
        "type": "Point",
        "coordinates": [
          -149.2208755898315,
          -17.34076782484881
        ]
      }
    }
  ]
}